#cP2020 11 29  0  0  0.00000000      96 ORBIT IGb14 HLM  IGS
## 2134      0.00000000   900.00000000 59182 0.0000000000000
+   32   G01G02G03G04G05G06G07G08G09G10G11G12G13G14G15G16G17
+        G18G19G20G21G22G23G24G25G26G27G28G29G30G31G32  0  0
+          0  0  0  0  0  0  0  0  0  0  0  0  0  0  0  0  0
+          0  0  0  0  0  0  0  0  0  0  0  0  0  0  0  0  0
+          0  0  0  0  0  0  0  0  0  0  0  0  0  0  0  0  0
++         3  2  2  2  2  3  2  2  2  2  2  2  2  3  2  2  2
++         3  2  2  2  2  2  2  2  2  2  2  2  2  2  2  0  0
++         0  0  0  0  0  0  0  0  0  0  0  0  0  0  0  0  0
++         0  0  0  0  0  0  0  0  0  0  0  0  0  0  0  0  0
++         0  0  0  0  0  0  0  0  0  0  0  0  0  0  0  0  0
%c G  cc GPS ccc cccc cccc cccc cccc ccccc ccccc ccccc ccccc
%c cc cc ccc ccc cccc cccc cccc cccc ccccc ccccc ccccc ccccc
%f  1.2500000  1.025000000  0.00000000000  0.000000000000000
%f  0.0000000  0.000000000  0.00000000000  0.000000000000000
%i    0    0    0    0      0      0      0      0         0
%i    0    0    0    0      0      0      0      0         0
/* RAPID ORBIT COMBINATION FROM WEIGHTED AVERAGE OF:        
/* cod emr esa gfz jpl ngs sio usn whu                      
/* REFERENCED TO IGS TIME (IGST) AND TO WEIGHTED MEAN POLE: 
/* PCV:IGS14_2132 OL/AL:FES2004  NONE     Y  ORB:CMB CLK:CMB
*  2020 11 29 17 15  0.00000000
PG01 -13817.721581   5871.095323  21636.598990    802.104708  5  7  7  72       
PG02  13840.595560  16735.307679 -14644.458717   -548.505064  5  7  7  91       
PG03 -22731.735281  12225.486447   5960.604779    -16.800690  4  6  8 101       
PG04 -21667.177503   1897.232360 -15271.338055   -159.872975  8  6  6  91       
PG05  16952.014779   4544.507754 -20142.096946    -27.110590  6  7  5  70       
PG06   5665.458829  25687.818899  -3455.364630     -2.738666  9 10  9           
PG07  -7184.804100  21186.700853 -13603.191918   -424.106471  7  6  5  63       
PG08 -25264.161510  -4572.688121   7363.698146     -1.134090  5  5  6  81       
PG09 -11644.425833  11459.054115 -21007.847353   -295.490279  4  4  6 105       
PG10   4994.549769 -19188.814124  17635.336169     -4.370940     7  4 111       
PG11 -18728.403086  -2526.258229  18071.977207    -95.109682  5  9  7  62       
PG12  23486.947882  -8708.219423   8357.574729     33.700011  4  4  3  82       
PG13  22985.075621  13436.589511   -219.523787     69.880558  5  8  5 104       
PG14  -8357.724041  19468.308744  16013.527325     48.074495  7 13 11 120       
PG15  25531.231185   1611.048794   7456.986881   -186.671545  5  4  2 119       
PG16 -16674.084934  -5656.227487 -20245.872464   -243.334605  5  6  2  97       
PG17   6727.275252  17527.132302  19230.993944    360.490812  4  8  6 104       
PG18   6210.878541 -22611.978095 -12427.038864    327.192909  4 12  9 128       
PG19  13484.061322  17962.024772  13954.677116    -71.858431  7  8  5 103       
PG20  13817.683956 -21384.012522   7001.107244    525.822021  4 10  6 111       
PG21 -16226.076992  -3346.896221  21565.004531     72.956715  6  4  5  76       
PG22 -21882.569513   6423.071387  13678.455339   -722.860141  4  8  7  75       
PG23  14428.840982 -20141.359953   9498.635916    105.597474  5  7  3  99       
PG24  15577.681649  -1793.282450  21221.652060      5.781197  6  3  6 100       
PG25  19358.583621 -17710.585905  -3278.810961     30.790673  6  8  6  86       
PG26  -6737.082361 -14415.836158 -21276.450465      6.671400  7  8  7  55       
PG27 -23119.500064 -12779.335259  -4356.588412    -24.255462  4  6  5  83       
PG28  -5011.483603  18430.809786  19107.821097    649.439804  6  7  2  97       
PG29  13858.181009  -8638.210740 -20993.329242   -246.243919  7  8  6 112       
PG30   -883.698567  25992.094829  -4746.526984   -343.975244  5  9  4  65       
PG31  -6858.019746 -24688.685827  -6050.795901    -84.508101  6  7  8  71       
PG32  -7831.423278 -17384.838596  18641.775669      4.448244  4  6  5  99       
*  2020 11 29 17 30  0.00000000
PG01 -14238.999291   3365.460045  21922.607741    802.100512  6  6  7  62       
PG02  14014.582723  18387.833059 -12427.902221   -548.509171  5  7  7  77       
PG03 -22221.899351  11508.684466   8668.425761    -16.809760  3  6  8  77       
PG04 -23091.907318   1095.682730 -13113.807679   -159.876089  8  6  5  84       
PG05  15257.188432   6135.347111 -21045.524638    -27.111510  6  6  4  75       
PG06   5509.758233  25952.866626   -567.074996     -2.739751  8  9  9  65       
PG07  -7689.084318  19496.182375 -15692.658429   -424.113108  7  7  5  80       
PG08 -25833.540786  -4993.812757   4618.204552     -1.134473  4  6  6  81       
PG09 -13820.823294  10587.580925 -20126.582610   -295.494412  4  4  5  91       
PG10   6568.540678 -20272.249471  15777.639578     -4.379060     8  4 107       
PG11 -19782.522511  -4345.966997  16544.494825    -95.099935  4  9  7  62       
PG12  22676.363214  -7882.727390  10954.444389     33.695208  4  4  3  94       
PG13  22725.941221  13554.699236  -3073.765398     69.884206  5  9  6 101       
PG14  -9845.847850  20342.136020  13949.128029     48.086778  7 13 11 115       
PG15  26169.657664   2095.039987   4807.000634   -186.669063  5  3  1 123       
PG16 -14788.641701  -6997.682059 -21237.562600   -243.339203  5  7  3  95       
PG17   4700.869800  16705.568686  20547.063961    360.495464  4  8  6  98       
PG18   6615.478676 -21102.966154 -14675.504755    327.196797  5 11  8 136       
PG19  11848.782783  17304.294142  16061.009166    -71.853711  7  8  5 100       
PG20  14511.769710 -21642.769785   4281.074789    525.821736  4 10  7 108       
PG21 -16696.818653  -5561.993110  20735.246992     72.960903  5  4  5  83       
PG22 -20872.266212   5077.572288  15715.466164   -722.854770  4  7  6  83       
PG23  15294.415153 -20576.431606   6848.167015    105.600829  5  7  4 110       
PG24  16114.177600    612.712703  20924.094178      5.781345  6  3  6 100       
PG25  19672.238640 -17622.116059   -412.094497     30.796717  6  7  6  85       
PG26  -4890.748588 -15952.024984 -20652.258471      6.676793  7  9  7  49       
PG27 -22466.301765 -12719.337619  -7124.740948    -24.262834  4  6  5  98       
PG28  -6707.952578  19454.827015  17465.894301    649.435742  6  7  2  85       
PG29  15940.409639  -7602.220007 -19889.261988   -246.250269  7  8  6 123       
PG30  -1298.912632  25331.580285  -7450.727504   -343.981117  5  8  3  70       
PG31  -6638.376256 -25255.652050  -3242.164700    -84.510003  6  8  8  85       
PG32  -5739.817209 -16733.248953  19945.135283      4.450912  4  6  6  91       
*  2020 11 29 17 45  0.00000000
PG01 -14798.596456    879.417450  21822.631338    802.096394  6  5  7  37       
PG02  14197.966078  19767.778320  -9989.719117   -548.513532  5  7  7  53       
PG03 -21530.727589  10562.435664  11225.763444    -16.818839  4  6  8  88       
PG04 -24313.754053    453.945572 -10731.048315   -159.879238  8  6  5  91       
PG05  13588.039786   7869.711495 -21592.798995    -27.112139  6  6  4  84       
PG06   5296.863230  25905.399870   2331.008871     -2.740806  7  9  8  78       
PG07  -8322.978017  17613.677647 -17500.222884   -424.119828  7  7  5  93       
PG08 -26123.999924  -5295.330019   1794.582648     -1.134566  4  6  5 102       
PG09 -15924.935734   9861.638620 -18901.000192   -295.498461  4  4  5  88       
PG10   7919.309248 -21284.041793  13647.048868     -4.387129  1  8  4 103       
PG11 -20791.111380  -5970.383576  14718.817072    -95.090459  4  9  8  62       
PG12  21688.078673  -6834.439149  13359.074945     33.690549  5  3  3  88       
PG13  22184.004958  13552.261711  -5875.580879     69.887595  4  9  5  95       
PG14 -11097.229588  21132.931051  11644.608547     48.099038  6 13 11 113       
PG15  26533.767189   2486.602511   2075.438463   -186.666837  5  3    124       
PG16 -12905.943141  -8499.639988 -21873.854957   -243.344188  5  8  4  90       
PG17   2513.380869  15955.621673  21522.599498    360.500220  4  8  5 100       
PG18   7146.610391 -19381.876531 -16670.895902    327.200723  6  9  8 132       
PG19   9970.680973  16648.861786  17886.386209    -71.849285  7  8  5 102       
PG20  14993.570201 -21692.442581   1486.066380    525.821478  5 10  7 100       
PG21 -17253.860307  -7644.201603  19573.105232     72.963570  5  4  4  87       
PG22 -19784.572181   3529.072088  17483.733332   -722.849607  4  6  6  75       
PG23  15915.471434 -20842.219347   4079.517968    105.604180  6  8  4 103       
PG24  16748.534963   2933.701569  20260.624163      5.779892  5  4  7  95       
PG25  19751.099843 -17326.534950   2461.805931     30.802813  7  6  6  83       
PG26  -3184.815165 -17515.162223 -19672.300413      6.682202  6  9  7  59       
PG27 -21520.691187 -12605.351809  -9773.288999    -24.270248  4  7  5  84       
PG28  -8190.278235  20452.046658  15537.566473    649.431469  5  7  3  94       
PG29  17942.720853  -6736.974442 -18444.420047   -246.257019  7  7  7 106       
PG30  -1801.805242  24397.726282 -10024.886955   -343.987045  6  8  2  61       
PG31  -6383.968472 -25514.899007   -376.167649    -84.512159  6  7  8  80       
PG32  -3494.207919 -16153.636232  20909.116103      4.453600  4  7  6  94       
EOF
